{"type": "FeatureCollection", "features": [ {"type": "Feature", "properties": {"norad_id": 32289, "name": "YAOGAN-3", "group": "resource", "lat": -6.486979566941888, "lon": 17.8648238265194, "alt_km": 602.0275098031816, "timestamp": "2025-12-16T08:59:42.815060+00:00", "meta": {"OBJECT_NAME": "YAOGAN-3", "OBJECT_ID": "2007-055A", "EPOCH": "2025-12-15T23:21:12.132576", "MEAN_MOTION": 14.89877126, "ECCENTRICITY": 0.00013616, "INCLINATION": 97.8371, "RA_OF_ASC_NODE": 16.5693, "ARG_OF_PERICENTER": 77.1788, "MEAN_ANOMALY": 282.9581, "EPHEMERIS_TYPE": 0, "CLASSIFICATION_TYPE": "U", "NORAD_CAT_ID": 32289, "ELEMENT_SET_NO": 999, "REV_AT_EPOCH": 97857, "BSTAR": 0.00024221012, "MEAN_MOTION_DOT": 2.273e-05, "MEAN_MOTION_DDOT": 0}, "tle": {"line1": "1 32289U 07055A   25349.97305709  .00002273  00000+0  24221-3 0  9991", "line2": "2 32289  97.8371  16.5693 0001361  77.1788 282.9581 14.89877126978574"}}, "geometry": {"type": "Point", "coordinates": [17.8648238265194, -6.486979566941888]}}, {"type": "Feature", "properties": {"norad_id": 32376, "name": "COSMO-SKYMED 2", "group": "resource", "lat": 7.907038277337885, "lon": -7.253920659636216, "alt_km": 624.4878962596795, "timestamp": "2025-12-16T08:59:42.815071+00:00", "meta": {"OBJECT_NAME": "COSMO-SKYMED 2", "OBJECT_ID": "2007-059A", "EPOCH": "2025-12-16T00:07:15.369600", "MEAN_MOTION": 14.82146566, "ECCENTRICITY": 0.00013839, "INCLINATION": 97.8804, "RA_OF_ASC_NODE": 171.2798, "ARG_OF_PERICENTER": 83.3146, "MEAN_ANOMALY": 276.8224, "EPHEMERIS_TYPE": 0, "CLASSIFICATION_TYPE": "U", "NORAD_CAT_ID": 32376, "ELEMENT_SET_NO": 999, "REV_AT_EPOCH": 97486, "BSTAR": 7.6250527e-05, "MEAN_MOTION_DOT": 5.55e-06, "MEAN_MOTION_DDOT": 0}, "tle": {"line1": "1 32376U 07059A   25350.00503900  .00000555  00000+0  76251-4 0  9993", "line2": "2 32376  97.8804 171.2798 0001383  83.3146 276.8224 14.82146566974862"}}, "geometry": {"type": "Point", "coordinates": [-7.253920659636216, 7.907038277337885]}}, {"type": "Feature", "properties": {"norad_id": 32382, "name": "RADARSAT-2", "group": "resource", "lat": 20.44117203249713, "lon": 178.1381627130967, "alt_km": 791.5177003326435, "timestamp": "2025-12-16T08:59:42.815082+00:00", "meta": {"OBJECT_NAME": "RADARSAT-2", "OBJECT_ID": "2007-061A", "EPOCH": "2025-12-15T23:51:24.212736", "MEAN_MOTION": 14.29983294, "ECCENTRICITY": 0.00011201, "INCLINATION": 98.5801, "RA_OF_ASC_NODE": 354.5371, "ARG_OF_PERICENTER": 85.7698, "MEAN_ANOMALY": 274.3613, "EPHEMERIS_TYPE": 0, "CLASSIFICATION_TYPE": "U", "NORAD_CAT_ID": 32382, "ELEMENT_SET_NO": 999, "REV_AT_EPOCH": 93977, "BSTAR": 9.3487331e-05, "MEAN_MOTION_DOT": 1.97e-06, "MEAN_MOTION_DDOT": 0}, "tle": {"line1": "1 32382U 07061A   25349.99403024  .00000197  00000+0  93487-4 0  9997", "line2": "2 32382  98.5801 354.5371 0001120  85.7698 274.3613 14.29983294939778"}}, "geometry": {"type": "Point", "coordinates": [178.1381627130967, 20.44117203249713]}}, {"type": "Feature", "properties": {"norad_id": 32783, "name": "CARTOSAT-2A", "group": "resource", "lat": -82.1798646504363, "lon": 134.38652577542106, "alt_km": 639.093002338429, "timestamp": "2025-12-16T08:59:42.815093+00:00", "meta": {"OBJECT_NAME": "CARTOSAT-2A", "OBJECT_ID": "2008-021A", "EPOCH": "2025-12-15T23:39:39.932640", "MEAN_MOTION": 14.78945532, "ECCENTRICITY": 0.00116405, "INCLINATION": 97.7932, "RA_OF_ASC_NODE": 39.7081, "ARG_OF_PERICENTER": 354.2768, "MEAN_ANOMALY": 5.8309, "EPHEMERIS_TYPE": 0, "CLASSIFICATION_TYPE": "U", "NORAD_CAT_ID": 32783, "ELEMENT_SET_NO": 999, "REV_AT_EPOCH": 95172, "BSTAR": 0.00016090633, "MEAN_MOTION_DOT": 1.138e-05, "MEAN_MOTION_DDOT": 0}, "tle": {"line1": "1 32783U 08021A   25349.98587885  .00001138  00000+0  16091-3 0  9997", "line2": "2 32783  97.7932  39.7081 0011640 354.2768   5.8309 14.78945532951724"}}, "geometry": {"type": "Point", "coordinates": [134.38652577542106, -82.1798646504363]}}, {"type": "Feature", "properties": {"norad_id": 33320, "name": "HUANJING 1A (HJ-1A)", "group": "resource", "lat": -13.207400066793534, "lon": 156.71327413337056, "alt_km": 636.9140263544396, "timestamp": "2025-12-16T08:59:42.815103+00:00", "meta": {"OBJECT_NAME": "HUANJING 1A (HJ-1A)", "OBJECT_ID": "2008-041A", "EPOCH": "2025-12-16T00:01:59.060928", "MEAN_MOTION": 14.83407664, "ECCENTRICITY": 0.00199387, "INCLINATION": 97.6541, "RA_OF_ASC_NODE": 338.164, "ARG_OF_PERICENTER": 24.1736, "MEAN_ANOMALY": 336.041, "EPHEMERIS_TYPE": 0, "CLASSIFICATION_TYPE": "U", "NORAD_CAT_ID": 33320, "ELEMENT_SET_NO": 999, "REV_AT_EPOCH": 93124, "BSTAR": 0.00022448809, "MEAN_MOTION_DOT": 1.797e-05, "MEAN_MOTION_DDOT": 0}, "tle": {"line1": "1 33320U 08041A   25350.00137802  .00001797  00000+0  22449-3 0  9997", "line2": "2 33320  97.6541 338.1640 0019938  24.1736 336.0410 14.83407664931242"}}, "geometry": {"type": "Point", "coordinates": [156.71327413337056, -13.207400066793534]}}, {"type": "Feature", "properties": {"norad_id": 33321, "name": "HUANJING 1B (HJ-1B)", "group": "resource", "lat": 46.021898137677255, "lon": -25.78674368299855, "alt_km": 590.9258842710369, "timestamp": "2025-12-16T08:59:42.815114+00:00", "meta": {"OBJECT_NAME": "HUANJING 1B (HJ-1B)", "OBJECT_ID": "2008-041B", "EPOCH": "2025-12-15T23:04:12.243648", "MEAN_MOTION": 14.82832926, "ECCENTRICITY": 0.00381785, "INCLINATION": 97.6401, "RA_OF_ASC_NODE": 341.8142, "ARG_OF_PERICENTER": 65.5438, "MEAN_ANOMALY": 294.9752, "EPHEMERIS_TYPE": 0, "CLASSIFICATION_TYPE": "U", "NORAD_CAT_ID": 33321, "ELEMENT_SET_NO": 999, "REV_AT_EPOCH": 93125, "BSTAR": 0.00018464245, "MEAN_MOTION_DOT": 1.462e-05, "MEAN_MOTION_DDOT": 0}, "tle": {"line1": "1 33321U 08041B   25349.96125282  .00001462  00000+0  18464-3 0  9991", "line2": "2 33321  97.6401 341.8142 0038178  65.5438 294.9752 14.82832926931255"}}, "geometry": {"type": "Point", "coordinates": [-25.78674368299855, 46.021898137677255]}}, {"type": "Feature", "properties": {"norad_id": 33331, "name": "GEOEYE 1", "group": "resource", "lat": 22.509428079845403, "lon": -114.99603083924467, "alt_km": 678.4557450956254, "timestamp": "2025-12-16T08:59:42.815125+00:00", "meta": {"OBJECT_NAME": "GEOEYE 1", "OBJECT_ID": "2008-042A", "EPOCH": "2025-12-15T22:26:33.450432", "MEAN_MOTION": 14.64704604, "ECCENTRICITY": 0.00027433, "INCLINATION": 98.1251, "RA_OF_ASC_NODE": 61.1758, "ARG_OF_PERICENTER": 271.6646, "MEAN_ANOMALY": 88.4243, "EPHEMERIS_TYPE": 0, "CLASSIFICATION_TYPE": "U", "NORAD_CAT_ID": 33331, "ELEMENT_SET_NO": 999, "REV_AT_EPOCH": 92332, "BSTAR": 0.00011233617, "MEAN_MOTION_DOT": 5.5e-06, "MEAN_MOTION_DDOT": 0}, "tle": {"line1": "1 33331U 08042A   25349.93510938  .00000550  00000+0  11234-3 0  9991", "line2": "2 33331  98.1251  61.1758 0002743 271.6646  88.4243 14.64704604923321"}}, "geometry": {"type": "Point", "coordinates": [-114.99603083924467, 22.509428079845403]}}, {"type": "Feature", "properties": {"norad_id": 33396, "name": "THEOS", "group": "resource", "lat": 29.26914976132195, "lon": -126.78498969828924, "alt_km": 823.0760682356968, "timestamp": "2025-12-16T08:59:42.815136+00:00", "meta": {"OBJECT_NAME": "THEOS", "OBJECT_ID": "2008-049A", "EPOCH": "2025-12-15T23:50:06.541728", "MEAN_MOTION": 14.20097574, "ECCENTRICITY": 0.00011547, "INCLINATION": 98.5869, "RA_OF_ASC_NODE": 47.9867, "ARG_OF_PERICENTER": 96.4492, "MEAN_ANOMALY": 263.6817, "EPHEMERIS_TYPE": 0, "CLASSIFICATION_TYPE": "U", "NORAD_CAT_ID": 33396, "ELEMENT_SET_NO": 999, "REV_AT_EPOCH": 89196, "BSTAR": 6.8278479e-05, "MEAN_MOTION_DOT": 1.03e-06, "MEAN_MOTION_DDOT": 0}, "tle": {"line1": "1 33396U 08049A   25349.99313127  .00000103  00000+0  68278-4 0  9991", "line2": "2 33396  98.5869  47.9867 0001154  96.4492 263.6817 14.20097574891962"}}, "geometry": {"type": "Point", "coordinates": [-126.78498969828924, 29.26914976132195]}}, {"type": "Feature", "properties": {"norad_id": 33412, "name": "COSMO-SKYMED 3", "group": "resource", "lat": -81.8998610077252, "lon": -83.44964142470798, "alt_km": 561.7625513777884, "timestamp": "2025-12-16T08:59:42.815148+00:00", "meta": {"OBJECT_NAME": "COSMO-SKYMED 3", "OBJECT_ID": "2008-054A", "EPOCH": "2025-12-15T23:48:54.637056", "MEAN_MOTION": 15.05389461, "ECCENTRICITY": 0.00163124, "INCLINATION": 97.8478, "RA_OF_ASC_NODE": 200.4384, "ARG_OF_PERICENTER": 161.9258, "MEAN_ANOMALY": 198.2551, "EPHEMERIS_TYPE": 0, "CLASSIFICATION_TYPE": "U", "NORAD_CAT_ID": 33412, "ELEMENT_SET_NO": 999, "REV_AT_EPOCH": 92936, "BSTAR": 0.00020606347, "MEAN_MOTION_DOT": 2.897e-05, "MEAN_MOTION_DDOT": 0}, "tle": {"line1": "1 33412U 08054A   25349.99229904  .00002897  00000+0  20606-3 0  9999", "line2": "2 33412  97.8478 200.4384 0016312 161.9258 198.2551 15.05389461929366"}}, "geometry": {"type": "Point", "coordinates": [-83.44964142470798, -81.8998610077252]}}, {"type": "Feature", "properties": {"norad_id": 33446, "name": "YAOGAN-4", "group": "resource", "lat": -42.899117011067304, "lon": -72.13098543251807, "alt_km": 618.1978467288054, "timestamp": "2025-12-16T08:59:42.815158+00:00", "meta": {"OBJECT_NAME": "YAOGAN-4", "OBJECT_ID": "2008-061A", "EPOCH": "2025-12-15T18:36:47.735136", "MEAN_MOTION": 14.82692757, "ECCENTRICITY": 0.00133523, "INCLINATION": 97.9181, "RA_OF_ASC_NODE": 279.845, "ARG_OF_PERICENTER": 312.7719, "MEAN_ANOMALY": 47.237, "EPHEMERIS_TYPE": 0, "CLASSIFICATION_TYPE": "U", "NORAD_CAT_ID": 33446, "ELEMENT_SET_NO": 999, "REV_AT_EPOCH": 91848, "BSTAR": 0.00015255077, "MEAN_MOTION_DOT": 1.178e-05, "MEAN_MOTION_DDOT": 0}, "tle": {"line1": "1 33446U 08061A   25349.77555249  .00001178  00000+0  15255-3 0  9999", "line2": "2 33446  97.9181 279.8450 0013352 312.7719  47.2370 14.82692757918480"}}, "geometry": {"type": "Point", "coordinates": [-72.13098543251807, -42.899117011067304]}}]}